NORAD_CAT_ID,OBJECT_NAME,OBJECT_TYPE,EPOCH,MEAN_MOTION,ECCENTRICITY,INCLINATION,RA_OF_ASC_NODE,ARG_OF_PERICENTER,MEAN_ANOMALY,BSTAR,MEAN_MOTION_DOT,MEAN_MOTION_DDOT,TLE_LINE0,TLE_LINE1,TLE_LINE2,SEMIMAJOR_AXIS,PERIOD,APOGEE,PERIGEE,DECAYED
50830.0,STARLINK-3278,PAYLOAD,2023-02-18 23:05:49,15.08839993,0.0001054,53.2156,143.3255,112.7916,247.3187,0.0016039,0.0002533,0.0,0 STARLINK-3278,1 50830U 22001AD  23049.96237432  .00025330  00000-0  16039-2 0  9999,2 50830  53.2156 143.3255 0001054 112.7916 247.3187 15.08839993 63253,6917.88,95.438,540.475,539.016,0.0
50830.0,STARLINK-3278,PAYLOAD,2023-02-19 13:24:16,15.08865518,0.0001054,53.2155,140.6501,106.9864,253.1244,0.0015015,0.00023706,0.0,0 STARLINK-3278,1 50830U 22001AD  23050.55852931  .00023706  00000-0  15015-2 0  9991,2 50830  53.2155 140.6501 0001054 106.9864 253.1244 15.08865518 62073,6917.802,95.436,540.397,538.938,0.0
50830.0,STARLINK-3278,PAYLOAD,2023-02-20 13:15:03,15.08863009,0.0001008,53.2158,136.1899,126.0288,234.0798,0.00095866,0.00015012,0.0,0 STARLINK-3278,1 50830U 22001AD  23051.55212037  .00015012  00000-0  95866-3 0  9993,2 50830  53.2158 136.1899 0001008 126.0288 234.0798 15.08863009 63490,6917.81,95.436,540.372,538.978,0.0
50830.0,STARLINK-3278,PAYLOAD,2023-02-21 14:41:13,15.08861188,9.22e-05,53.2145,131.4304,106.67,253.4393,0.002021,0.00032041,0.0,0 STARLINK-3278,1 50830U 22001AD  23052.61195937  .00032041  00000-0  20210-2 0  9991,2 50830  53.2145 131.4304 0000922 106.6700 253.4393 15.08861188 63652,6917.816,95.436,540.318,539.043,0.0
50830.0,STARLINK-3278,PAYLOAD,2023-02-21 22:38:09,15.08844994,9.9e-05,53.2165,129.9441,92.94,267.1706,0.00064235,9.951e-05,0.0,0 STARLINK-3278,1 50830U 22001AD  23052.94316246  .00009951  00000-0  64235-3 0  9995,2 50830  53.2165 129.9441 0000990  92.9400 267.1706 15.08844994 63709,6917.865,95.437,540.415,539.045,0.0
50830.0,STARLINK-3278,PAYLOAD,2023-02-22 11:21:14,15.08850691,0.0001021,53.2148,127.5638,106.7257,253.3847,0.00086958,0.00013583,0.0,0 STARLINK-3278,1 50830U 22001AD  23053.47307986  .00013583  00000-0  86958-3 0  9997,2 50830  53.2148 127.5638 0001021 106.7257 253.3847 15.08850691 62514,6917.848,95.437,540.419,539.006,0.0
50830.0,STARLINK-3278,PAYLOAD,2023-02-22 16:07:23,15.0885943,9.5e-05,53.2154,126.6718,99.9062,260.2038,0.00077752,0.00012115,0.0,0 STARLINK-3278,1 50830U 22001AD  23053.67179665  .00012115  00000-0  77752-3 0  9992,2 50830  53.2154 126.6718 0000950  99.9062 260.2038 15.08859430 62549,6917.821,95.436,540.343,539.029,0.0
50830.0,STARLINK-3278,PAYLOAD,2023-02-23 04:50:28,15.08841812,0.0001035,53.2143,124.2931,102.7745,257.3363,0.00053801,8.285e-05,0.0,0 STARLINK-3278,1 50830U 22001AD  23054.20172285  .00008285  00000-0  53801-3 0  9995,2 50830  53.2143 124.2931 0001035 102.7745 257.3363 15.08841812 63896,6917.875,95.437,540.456,539.024,0.0
50830.0,STARLINK-3278,PAYLOAD,2023-02-23 11:12:01,15.08841741,0.0001048,53.2154,123.104,82.0327,278.0784,0.0013743,0.00021653,0.0,0 STARLINK-3278,1 50830U 22001AD  23054.46668501  .00021653  00000-0  13743-2 0  9998,2 50830  53.2154 123.1040 0001048  82.0327 278.0784 15.08841741 62669,6917.875,95.437,540.465,539.015,0.0
50830.0,STARLINK-3278,PAYLOAD,2023-02-23 15:58:10,15.08850275,0.00011,53.2154,122.2116,89.0147,271.0971,0.001307,0.0002058,0.0,0 STARLINK-3278,1 50830U 22001AD  23054.66540342  .00020580  00000-0  13070-2 0  9993,2 50830  53.2154 122.2116 0001100  89.0147 271.0971 15.08850275 62695,6917.849,95.437,540.475,538.953,0.0
50830.0,STARLINK-3278,PAYLOAD,2023-02-24 09:27:25,15.0885232,0.0001251,53.2154,118.9403,103.2249,256.8883,0.0012593,0.00019817,0.0,0 STARLINK-3278,1 50830U 22001AD  23055.39404408  .00019817  00000-0  12593-2 0  9996,2 50830  53.2154 118.9403 0001251 103.2249 256.8883 15.08852320 62804,6917.843,95.437,540.573,538.842,0.0
50830.0,STARLINK-3278,PAYLOAD,2023-02-24 15:48:57,15.08858473,0.0001235,53.2155,117.7494,109.2574,250.8552,0.00092644,0.00014494,0.0,0 STARLINK-3278,1 50830U 22001AD  23055.65900005  .00014494  00000-0  92644-3 0  9991,2 50830  53.2155 117.7494 0001235 109.2574 250.8552 15.08858473 64119,6917.824,95.436,540.543,538.835,0.0
50830.0,STARLINK-3278,PAYLOAD,2023-02-24 20:35:07,15.08830277,0.0001122,53.2161,116.8587,107.8721,252.2394,-0.00031308,-5.266e-05,0.0,0 STARLINK-3278,1 50830U 22001AD  23055.85772701 -.00005266  00000-0 -31308-3 0  9992,2 50830  53.2161 116.8587 0001122 107.8721 252.2394 15.08830277 64147,6917.91,95.438,540.551,538.999,0.0
50830.0,STARLINK-3278,PAYLOAD,2023-02-25 09:18:12,15.08832377,0.0001009,53.2163,114.4787,108.3726,251.7376,0.0005234,8.05e-05,0.0,0 STARLINK-3278,1 50830U 22001AD  23056.38764821  .00008050  00000-0  52340-3 0  9996,2 50830  53.2163 114.4787 0001009 108.3726 251.7376 15.08832377 64226,6917.904,95.438,540.467,539.071,0.0
50830.0,STARLINK-3278,PAYLOAD,2023-02-25 20:25:55,15.08841109,0.0001264,53.2158,112.3983,93.2582,266.8554,0.0010024,0.00015702,0.0,0 STARLINK-3278,1 50830U 22001AD  23056.85133207  .00015702  00000-0  10024-2 0  9990,2 50830  53.2158 112.3983 0001264  93.2582 266.8554 15.08841109 63025,6917.877,95.437,540.616,538.868,0.0
50830.0,STARLINK-3278,PAYLOAD,2023-02-26 13:55:09,15.0885765,0.0001225,53.2166,109.1262,88.9152,271.1981,0.0016704,0.00026409,0.0,0 STARLINK-3278,1 50830U 22001AD  23057.57996826  .00026409  00000-0  16704-2 0  9991,2 50830  53.2166 109.1262 0001225  88.9152 271.1981 15.08857650 63132,6917.826,95.436,540.539,538.844,0.0
50830.0,STARLINK-3278,PAYLOAD,2023-02-26 20:16:41,15.08847364,5.46e-05,53.2158,107.938,105.364,254.7413,0.00031572,4.742e-05,0.0,0 STARLINK-3278,1 50830U 22001AD  23057.84492522  .00004742  00000-0  31572-3 0  9992,2 50830  53.2158 107.9380 0000546 105.3640 254.7413 15.08847364 64444,6917.858,95.437,540.101,539.345,0.0
50830.0,STARLINK-3278,PAYLOAD,2023-02-27 15:21:18,15.08905466,0.0001207,53.2155,104.3688,83.9881,276.1249,0.0033176,0.00053004,0.0,0 STARLINK-3278,1 50830U 22001AD  23058.63980274  .00053004  00000-0  33176-2 0  9992,2 50830  53.2155 104.3688 0001207  83.9881 276.1249 15.08905466 64562,6917.68,95.433,540.38,538.71,0.0
50830.0,STARLINK-3278,PAYLOAD,2023-02-27 20:07:29,15.08835183,7.74e-05,53.2172,103.476,104.8439,255.2639,0.00019953,2.889e-05,0.0,0 STARLINK-3278,1 50830U 22001AD  23058.83853082  .00002889  00000-0  19953-3 0  9993,2 50830  53.2172 103.4760 0000774 104.8439 255.2639 15.08835183 63324,6917.895,95.438,540.296,539.225,0.0
50830.0,STARLINK-3278,PAYLOAD,2023-02-28 07:15:10,15.08857883,6.23e-05,53.2158,101.3964,133.7878,226.3166,0.0010478,0.00016435,0.0,0 STARLINK-3278,1 50830U 22001AD  23059.30220698  .00016435  00000-0  10478-2 0  9991,2 50830  53.2158 101.3964 0000623 133.7878 226.3166 15.08857883 64665,6917.826,95.436,540.122,539.26,0.0
50830.0,STARLINK-3278,PAYLOAD,2023-02-28 12:01:20,15.08872456,0.0001012,53.2153,100.5045,98.1608,261.9499,0.0025073,0.00039877,0.0,0 STARLINK-3278,1 50830U 22001AD  23059.50092636  .00039877  00000-0  25073-2 0  9994,2 50830  53.2153 100.5045 0001012  98.1608 261.9499 15.08872456 63429,6917.781,95.436,540.346,538.946,0.0
50830.0,STARLINK-3278,PAYLOAD,2023-02-28 19:58:16,15.08818786,9.05e-05,53.2158,99.0177,117.8677,242.2407,-0.001341,-0.00021553,0.0,0 STARLINK-3278,1 50830U 22001AD  23059.83212976 -.00021553  00000-0 -13410-2 0  9997,2 50830  53.2158  99.0177 0000905 117.8677 242.2407 15.08818786 63479,6917.945,95.439,540.436,539.184,0.0
50830.0,STARLINK-3278,PAYLOAD,2023-03-01 08:41:22,15.08819309,0.0001485,53.2154,96.6384,108.3285,251.7868,0.0013492,0.00021238,0.0,0 STARLINK-3278,1 50830U 22001AD  23060.36206450  .00021238  00000-0  13492-2 0  9995,2 50830  53.2154  96.6384 0001485 108.3285 251.7868 15.08819309 64820,6917.944,95.439,540.836,538.781,0.0
50830.0,STARLINK-3278,PAYLOAD,2023-03-01 19:49:04,15.08835379,0.0001496,53.2152,94.5569,108.6417,251.4738,0.001702,0.000269,0.0,0 STARLINK-3278,1 50830U 22001AD  23060.82575055  .00026900  00000-0  17020-2 0  9998,2 50830  53.2152  94.5569 0001496 108.6417 251.4738 15.08835379 63627,6917.895,95.438,540.794,538.725,0.0
50830.0,STARLINK-3278,PAYLOAD,2023-03-02 13:18:18,15.08875838,0.0001495,53.2152,91.2862,106.7202,253.3954,0.0017699,0.0002802,0.0,0 STARLINK-3278,1 50830U 22001AD  23061.55438232  .00028020  00000-0  17699-2 0  9991,2 50830  53.2152  91.2862 0001495 106.7202 253.3954 15.08875838 63734,6917.771,95.435,540.67,538.602,0.0
50830.0,STARLINK-3278,PAYLOAD,2023-03-03 11:33:41,15.08884203,0.0001466,53.2157,87.1232,109.04,251.0751,0.0020765,0.00032954,0.0,0 STARLINK-3278,1 50830U 22001AD  23062.48173201  .00032954  00000-0  20765-2 0  9995,2 50830  53.2157  87.1232 0001466 109.0400 251.0751 15.08884203 65141,6917.745,95.435,540.624,538.596,0.0
50830.0,STARLINK-3278,PAYLOAD,2023-03-03 13:09:04,15.08883845,0.0001645,53.2153,86.8253,111.8357,248.281,0.0018638,0.00029535,0.0,0 STARLINK-3278,1 50830U 22001AD  23062.54797069  .00029535  00000-0  18638-2 0  9993,2 50830  53.2153  86.8253 0001645 111.8357 248.2810 15.08883845 63881,6917.746,95.435,540.749,538.473,0.0
50830.0,STARLINK-3278,PAYLOAD,2023-03-04 06:38:19,15.08862951,0.0001459,53.2164,83.5537,126.0667,234.046,0.0020454,0.00032435,0.0,0 STARLINK-3278,1 50830U 22001AD  23063.27661074  .00032435  00000-0  20454-2 0  9992,2 50830  53.2164  83.5537 0001459 126.0667 234.0460 15.08862951 65260,6917.81,95.436,540.685,538.666,0.0
50830.0,STARLINK-3278,PAYLOAD,2023-03-04 12:59:51,15.08870321,0.0001449,53.2167,82.3628,119.0736,241.0401,0.0014445,0.00022795,0.0,0 STARLINK-3278,1 50830U 22001AD  23063.54156672  .00022795  00000-0  14445-2 0  9996,2 50830  53.2167  82.3628 0001449 119.0736 241.0401 15.08870321 64036,6917.788,95.436,540.655,538.65,0.0
50830.0,STARLINK-3278,PAYLOAD,2023-03-04 17:46:01,15.08830619,0.0001738,53.2168,81.4731,81.1489,278.97,0.00046353,7.095e-05,0.0,0 STARLINK-3278,1 50830U 22001AD  23063.74029538  .00007095  00000-0  46353-3 0  9998,2 50830  53.2168  81.4731 0001738  81.1489 278.9700 15.08830619 65338,6917.909,95.438,540.976,538.572,0.0
